NORAD_CAT_ID,OBJECT_NAME,OBJECT_TYPE,EPOCH,MEAN_MOTION,ECCENTRICITY,INCLINATION,RA_OF_ASC_NODE,ARG_OF_PERICENTER,MEAN_ANOMALY,BSTAR,MEAN_MOTION_DOT,MEAN_MOTION_DDOT,TLE_LINE0,TLE_LINE1,TLE_LINE2,SEMIMAJOR_AXIS,PERIOD,APOGEE,PERIGEE,DECAYED
53180.0,STARLINK-4258,PAYLOAD,2023-10-17 11:09:24,15.0882985,0.0001323,53.2171,88.5341,94.908,265.2063,0.00018035,2.583e-05,0.0,0 STARLINK-4258,1 53180U 22083BA  23290.46486818  .00002583  00000-0  18035-3 0  9991,2 53180  53.2171  88.5341 0001323  94.9080 265.2063 15.08829850 70575,6917.911,95.438,540.692,538.861,0.0
53180.0,STARLINK-4258,PAYLOAD,2023-10-17 17:30:56,15.08841393,0.0001299,53.2175,87.3436,88.6286,271.4854,0.00010348,1.359e-05,0.0,0 STARLINK-4258,1 53180U 22083BA  23290.72982259  .00001359  00000-0  10348-3 0  9999,2 53180  53.2175  87.3436 0001299  88.6286 271.4854 15.08841393 70619,6917.876,95.437,540.64,538.842,0.0
53180.0,STARLINK-4258,PAYLOAD,2023-10-18 12:35:34,15.08829783,0.0001589,53.2175,83.7772,108.4101,251.7064,0.00020664,3.001e-05,0.0,0 STARLINK-4258,1 53180U 22083BA  23291.52470720  .00003001  00000-0  20664-3 0  9991,2 53180  53.2175  83.7772 0001589 108.4101 251.7064 15.08829783 70737,6917.912,95.438,540.876,538.677,0.0
53180.0,STARLINK-4258,PAYLOAD,2023-10-19 02:54:01,15.08855293,0.0001291,53.2173,81.1032,108.9213,251.1919,-1.3212e-05,-4.98e-06,0.0,0 STARLINK-4258,1 53180U 22083BA  23292.12085395 -.00000498  00000-0 -13212-4 0  9999,2 53180  53.2173  81.1032 0001291 108.9213 251.1919 15.08855293 70823,6917.834,95.437,540.592,538.806,0.0
53180.0,STARLINK-4258,PAYLOAD,2023-10-19 18:47:53,15.08845525,0.0001415,53.2174,78.1283,83.9481,276.1673,0.00012235,1.66e-05,0.0,0 STARLINK-4258,1 53180U 22083BA  23292.78325983  .00001660  00000-0  12235-3 0  9994,2 53180  53.2174  78.1283 0001415  83.9481 276.1673 15.08845525 70927,6917.864,95.437,540.707,538.75,0.0
53180.0,STARLINK-4258,PAYLOAD,2023-10-20 02:44:50,15.08834619,0.0001605,53.2175,76.6414,84.3963,275.7213,4.417e-05,4.15e-06,0.0,0 STARLINK-4258,1 53180U 22083BA  23293.11446934  .00000415  00000-0  44170-4 0  9993,2 53180  53.2175  76.6414 0001605  84.3963 275.7213 15.08834619 70970,6917.897,95.438,540.872,538.652,0.0
53180.0,STARLINK-4258,PAYLOAD,2023-10-20 18:38:41,15.08833796,0.000143,53.2185,73.6675,84.4433,275.6722,-3.6336e-05,-8.66e-06,0.0,0 STARLINK-4258,1 53180U 22083BA  23293.77687376 -.00000866  00000-0 -36336-4 0  9999,2 53180  53.2185  73.6675 0001430  84.4433 275.6722 15.08833796 70436,6917.899,95.438,540.754,538.775,0.0
53180.0,STARLINK-4258,PAYLOAD,2023-10-21 12:07:55,15.08844666,5.14e-05,53.2218,70.3958,155.1517,204.95,6.364e-05,7.26e-06,0.0,0 STARLINK-4258,1 53180U 22083BA  23294.50549831  .00000726  00000-0  63640-4 0  9995,2 53180  53.2218  70.3958 0000514 155.1517 204.9500 15.08844666 70541,6917.866,95.437,540.087,539.376,0.0
53180.0,STARLINK-4258,PAYLOAD,2023-10-21 15:18:41,15.08845373,0.0001177,53.2192,69.8008,89.2456,270.8671,5.6129e-05,6.06e-06,0.0,0 STARLINK-4258,1 53180U 22083BA  23294.63798174  .00000606  00000-0  56129-4 0  9996,2 53180  53.2192  69.8008 0001177  89.2456 270.8671 15.08845373 71207,6917.864,95.437,540.543,538.915,0.0
53180.0,STARLINK-4258,PAYLOAD,2023-10-22 08:47:57,15.0883046,0.0002035,53.2141,66.5318,81.4868,278.6354,8.0136e-05,9.87e-06,0.0,0 STARLINK-4258,1 53180U 22083BA  23295.36663483  .00000987  00000-0  80136-4 0  9998,2 53180  53.2141  66.5318 0002035  81.4868 278.6354 15.08830460 71311,6917.91,95.438,541.182,538.367,0.0
53180.0,STARLINK-4258,PAYLOAD,2023-10-22 13:34:07,15.08821129,0.000126,53.217,65.6417,76.6131,283.5002,1.0569e-05,-1.2e-06,0.0,0 STARLINK-4258,1 53180U 22083BA  23295.56536182 -.00000120  00000-0  10569-4 0  9998,2 53180  53.2170  65.6417 0001260  76.6131 283.5002 15.08821129 70700,6917.938,95.439,540.675,538.931,0.0
53180.0,STARLINK-4258,PAYLOAD,2023-10-22 15:09:30,15.08821924,0.0001234,53.2172,65.344,78.5187,281.5943,2.2958e-05,7.7e-07,0.0,0 STARLINK-4258,1 53180U 22083BA  23295.63160195  .00000077  00000-0  22958-4 0  9998,2 53180  53.2172  65.3440 0001234  78.5187 281.5943 15.08821924 71355,6917.936,95.439,540.654,538.947,0.0
53180.0,STARLINK-4258,PAYLOAD,2023-10-23 02:17:11,15.08843931,0.0001423,53.2196,63.2597,85.6657,274.4498,7.8762e-05,9.66e-06,0.0,0 STARLINK-4258,1 53180U 22083BA  23296.09527040  .00000966  00000-0  78762-4 0  9996,2 53180  53.2196  63.2597 0001423  85.6657 274.4498 15.08843931 71428,6917.868,95.437,540.718,538.749,0.0
53180.0,STARLINK-4258,PAYLOAD,2023-10-23 15:00:15,15.08849469,0.0001122,53.221,60.8816,64.0539,296.0569,0.00010478,1.381e-05,0.0,0 STARLINK-4258,1 53180U 22083BA  23296.62518476  .00001381  00000-0  10478-3 0  9999,2 53180  53.2210  60.8816 0001122  64.0539 296.0569 15.08849469 70866,6917.851,95.437,540.493,538.94,0.0
53180.0,STARLINK-4258,PAYLOAD,2023-10-24 08:29:31,15.08829131,0.0001227,53.2201,57.6103,67.0647,293.0474,0.00021192,3.085e-05,0.0,0 STARLINK-4258,1 53180U 22083BA  23297.35383619  .00003085  00000-0  21192-3 0  9997,2 53180  53.2201  57.6103 0001227  67.0647 293.0474 15.08829131 71618,6917.914,95.438,540.627,538.93,0.0
53180.0,STARLINK-4258,PAYLOAD,2023-10-24 14:51:03,15.08831402,0.0001136,53.2201,56.4201,70.5655,289.5459,0.00022094,3.229e-05,0.0,0 STARLINK-4258,1 53180U 22083BA  23297.61879588  .00003229  00000-0  22094-3 0  9993,2 53180  53.2201  56.4201 0001136  70.5655 289.5459 15.08831402 71012,6917.907,95.438,540.558,538.986,0.0
53180.0,STARLINK-4258,PAYLOAD,2023-10-25 14:41:52,15.08813772,0.000141,53.2196,51.9608,105.4215,254.6933,-0.00027195,-4.61e-05,0.0,0 STARLINK-4258,1 53180U 22083BA  23298.61241670 -.00004610  00000-0 -27195-3 0  9993,2 53180  53.2196  51.9608 0001410 105.4215 254.6933 15.08813772 71808,6917.961,95.439,540.801,538.85,0.0
53180.0,STARLINK-4258,PAYLOAD,2023-10-26 00:14:09,15.08840101,0.0001403,53.2194,50.1749,69.1789,290.9354,6.2198e-05,7.02e-06,0.0,0 STARLINK-4258,1 53180U 22083BA  23299.00983376  .00000702  00000-0  62198-4 0  9992,2 53180  53.2194  50.1749 0001403  69.1789 290.9354 15.08840101 71869,6917.88,95.438,540.716,538.775,0.0
53180.0,STARLINK-4258,PAYLOAD,2023-10-26 12:57:14,15.08838444,0.0001495,53.2197,47.8,86.4594,273.657,5.8605e-05,6.45e-06,0.0,0 STARLINK-4258,1 53180U 22083BA  23299.53975574  .00000645  00000-0  58605-4 0  9995,2 53180  53.2197  47.8000 0001495  86.4594 273.6570 15.08838444 71306,6917.885,95.438,540.784,538.716,0.0
53180.0,STARLINK-4258,PAYLOAD,2023-10-26 14:32:37,15.08841137,0.0001312,53.2201,47.5027,82.0733,278.0408,6.2036e-05,7e-06,0.0,0 STARLINK-4258,1 53180U 22083BA  23299.60599379  .00000700  00000-0  62036-4 0  9993,2 53180  53.2201  47.5027 0001312  82.0733 278.0408 15.08841137 71316,6917.877,95.437,540.65,538.834,0.0
53180.0,STARLINK-4258,PAYLOAD,2023-10-27 11:12:37,15.08864226,0.0001706,53.2202,43.637,98.9925,261.1261,-0.00016887,-2.977e-05,0.0,0 STARLINK-4258,1 53180U 22083BA  23300.46710451 -.00002977  00000-0 -16887-3 0  9998,2 53180  53.2202  43.6370 0001706  98.9925 261.1261 15.08864226 72080,6917.806,95.436,540.852,538.491,0.0
53180.0,STARLINK-4258,PAYLOAD,2023-10-27 17:34:10,15.08852698,0.0001787,53.219,42.4451,101.7803,258.339,0.00010468,1.379e-05,0.0,0 STARLINK-4258,1 53180U 22083BA  23300.73206283  .00001379  00000-0  10468-3 0  9993,2 53180  53.2190  42.4451 0001787 101.7803 258.3390 15.08852698 71484,6917.842,95.437,540.943,538.47,0.0
53180.0,STARLINK-4258,PAYLOAD,2023-10-28 11:03:26,15.08826651,0.0001342,53.2188,39.1767,92.2003,267.9142,-3.5417e-05,-8.51e-06,0.0,0 STARLINK-4258,1 53180U 22083BA  23301.46072659 -.00000851  00000-0 -35417-4 0  9990,2 53180  53.2188  39.1767 0001342  92.2003 267.9142 15.08826651 72232,6917.921,95.438,540.715,538.858,0.0
53180.0,STARLINK-4258,PAYLOAD,2023-10-28 14:14:12,15.08836091,0.0001426,53.2186,38.5801,92.9986,267.117,1.3889e-07,-2.86e-06,0.0,0 STARLINK-4258,1 53180U 22083BA  23301.59320067 -.00000286  00000-0  13889-6 0  9995,2 53180  53.2186  38.5801 0001426  92.9986 267.1170 15.08836091 71615,6917.892,95.438,540.744,538.771,0.0
53180.0,STARLINK-4258,PAYLOAD,2023-10-28 23:46:30,15.08845418,0.0001436,53.2189,36.7951,97.4648,262.6507,8.1091e-05,1.003e-05,0.0,0 STARLINK-4258,1 53180U 22083BA  23301.99063266  .00001003  00000-0  81091-4 0  9999,2 53180  53.2189  36.7951 0001436  97.4648 262.6507 15.08845418 72315,6917.864,95.437,540.722,538.735,0.0
53180.0,STARLINK-4258,PAYLOAD,2023-10-29 12:29:34,15.08864782,0.0001306,53.2175,34.4178,100.5432,259.5708,0.00055696,8.593e-05,0.0,0 STARLINK-4258,1 53180U 22083BA  23302.52054363  .00008593  00000-0  55696-3 0  9999,2 53180  53.2175  34.4178 0001306 100.5432 259.5708 15.08864782 72390,6917.805,95.436,540.573,538.766,0.0
53180.0,STARLINK-4258,PAYLOAD,2023-10-29 14:04:58,15.08869962,0.0001323,53.2174,34.1203,97.6741,262.4401,0.00086392,0.00013499,0.0,0 STARLINK-4258,1 53180U 22083BA  23302.58678422  .00013499  00000-0  86392-3 0  9991,2 53180  53.2174  34.1203 0001323  97.6741 262.4401 15.08869962 71761,6917.789,95.436,540.569,538.739,0.0
53180.0,STARLINK-4258,PAYLOAD,2023-10-30 12:20:23,15.08822761,0.0001382,53.2176,29.9582,109.1035,251.0107,0.0010761,0.00016872,0.0,0 STARLINK-4258,1 53180U 22083BA  23303.51415525  .00016872  00000-0  10761-2 0  9992,2 53180  53.2176  29.9582 0001382 109.1035 251.0107 15.08822761 72545,6917.933,95.439,540.754,538.842,0.0
53180.0,STARLINK-4258,PAYLOAD,2023-10-31 12:11:11,15.08835351,0.0001569,53.2187,25.4972,108.2556,251.8607,0.00081904,0.00012769,0.0,0 STARLINK-4258,1 53180U 22083BA  23304.50776650  .00012769  00000-0  81904-3 0  9990,2 53180  53.2187  25.4972 0001569 108.2556 251.8607 15.08835351 72694,6917.895,95.438,540.845,538.674,0.0
53180.0,STARLINK-4258,PAYLOAD,2023-11-01 12:01:57,15.0885913,0.0001465,53.2195,21.0406,96.4804,263.6355,0.0007969,0.00012424,0.0,0 STARLINK-4258,1 53180U 22083BA  23305.50136253  .00012424  00000-0  79690-3 0  9997,2 53180  53.2195  21.0406 0001465  96.4804 263.6355 15.08859130 72205,6917.822,95.436,540.7,538.673,0.0
